{"type": "FeatureCollection", "features": [{"type": "Feature", "properties": {"norad_id": 24946, "name": "IRIDIUM 33", "group": "iridium-33-debris", "lat": -83.74835869928134, "lon": -76.4147336371961, "alt_km": 780.1607987812276, "timestamp": "2025-12-12T09:49:09.116620+00:00", "meta": {"OBJECT_NAME": "IRIDIUM 33", "OBJECT_ID": "1997-051C", "EPOCH": "2025-12-12T03:34:05.305728", "MEAN_MOTION": 14.35036991, "ECCENTRICITY": 0.0006955, "INCLINATION": 86.3869, "RA_OF_ASC_NODE": 68.4698, "ARG_OF_PERICENTER": 202.4138, "MEAN_ANOMALY": 157.6755, "EPHEMERIS_TYPE": 0, "CLASSIFICATION_TYPE": "U", "NORAD_CAT_ID": 24946, "ELEMENT_SET_NO": 999, "REV_AT_EPOCH": 47826, "BSTAR": 0.00019279, "MEAN_MOTION_DOT": 5.69e-06, "MEAN_MOTION_DDOT": 0}, "tle": {"line1": "1 24946U 97051C   25346.14867252  .00000569  00000+0  19279-3 0  9992", "line2": "2 24946  86.3869  68.4698 0006955 202.4138 157.6755 14.35036991478267"}}, "geometry": {"type": "Point", "coordinates": [-76.4147336371961, -83.74835869928134]}}, {"type": "Feature", "properties": {"norad_id": 33773, "name": "IRIDIUM 33 DEB", "group": "iridium-33-debris", "lat": -32.20464749653954, "lon": -116.99843933259575, "alt_km": 750.1748977976185, "timestamp": "2025-12-12T09:49:09.116657+00:00", "meta": {"OBJECT_NAME": "IRIDIUM 33 DEB", "OBJECT_ID": "1997-051L", "EPOCH": "2025-12-12T03:50:53.265408", "MEAN_MOTION": 14.43255336, "ECCENTRICITY": 0.0012468, "INCLINATION": 86.4012, "RA_OF_ASC_NODE": 60.8352, "ARG_OF_PERICENTER": 147.9676, "MEAN_ANOMALY": 212.2286, "EPHEMERIS_TYPE": 0, "CLASSIFICATION_TYPE": "U", "NORAD_CAT_ID": 33773, "ELEMENT_SET_NO": 999, "REV_AT_EPOCH": 88339, "BSTAR": 0.00048847, "MEAN_MOTION_DOT": 1.664e-05, "MEAN_MOTION_DDOT": 0}, "tle": {"line1": "1 33773U 97051L   25346.16033872  .00001664  00000+0  48847-3 0  9995", "line2": "2 33773  86.4012  60.8352 0012468 147.9676 212.2286 14.43255336883391"}}, "geometry": {"type": "Point", "coordinates": [-116.99843933259575, -32.20464749653954]}}, {"type": "Feature", "properties": {"norad_id": 33775, "name": "IRIDIUM 33 DEB", "group": "iridium-33-debris", "lat": -62.071989501021555, "lon": 42.80504439012112, "alt_km": 768.9378093954174, "timestamp": "2025-12-12T09:49:09.116673+00:00", "meta": {"OBJECT_NAME": "IRIDIUM 33 DEB", "OBJECT_ID": "1997-051N", "EPOCH": "2025-12-12T03:32:35.377152", "MEAN_MOTION": 14.41466731, "ECCENTRICITY": 0.0014228, "INCLINATION": 86.3638, "RA_OF_ASC_NODE": 49.8064, "ARG_OF_PERICENTER": 156.4056, "MEAN_ANOMALY": 225.1218, "EPHEMERIS_TYPE": 0, "CLASSIFICATION_TYPE": "U", "NORAD_CAT_ID": 33775, "ELEMENT_SET_NO": 999, "REV_AT_EPOCH": 88132, "BSTAR": 0.00050032, "MEAN_MOTION_DOT": 1.644e-05, "MEAN_MOTION_DDOT": 0}, "tle": {"line1": "1 33775U 97051N   25346.14763168  .00001644  00000+0  50032-3 0  9990", "line2": "2 33775  86.3638  49.8064 0014228 156.4056 225.1218 14.41466731881326"}}, "geometry": {"type": "Point", "coordinates": [42.80504439012112, -62.071989501021555]}}, {"type": "Feature", "properties": {"norad_id": 33776, "name": "IRIDIUM 33 DEB", "group": "iridium-33-debris", "lat": 8.720288791699392, "lon": -99.63805764953494, "alt_km": 756.6496607480976, "timestamp": "2025-12-12T09:49:09.116686+00:00", "meta": {"OBJECT_NAME": "IRIDIUM 33 DEB", "OBJECT_ID": "1997-051P", "EPOCH": "2025-12-11T20:14:11.965056", "MEAN_MOTION": 14.38232823, "ECCENTRICITY": 0.00142384, "INCLINATION": 86.4036, "RA_OF_ASC_NODE": 81.1523, "ARG_OF_PERICENTER": 193.3301, "MEAN_ANOMALY": 289.5009, "EPHEMERIS_TYPE": 0, "CLASSIFICATION_TYPE": "U", "NORAD_CAT_ID": 33776, "ELEMENT_SET_NO": 999, "REV_AT_EPOCH": 88069, "BSTAR": 0.00047397129, "MEAN_MOTION_DOT": 1.46e-05, "MEAN_MOTION_DDOT": 0}, "tle": {"line1": "1 33776U 97051P   25345.84319404  .00001460  00000+0  47397-3 0  9993", "line2": "2 33776  86.4036  81.1523 0014238 193.3301 289.5009 14.38232823880693"}}, "geometry": {"type": "Point", "coordinates": [-99.63805764953494, 8.720288791699392]}}, {"type": "Feature", "properties": {"norad_id": 33777, "name": "IRIDIUM 33 DEB", "group": "iridium-33-debris", "lat": -61.567428374570625, "lon": 28.63000359304159, "alt_km": 712.1714522374932, "timestamp": "2025-12-12T09:49:09.116699+00:00", "meta": {"OBJECT_NAME": "IRIDIUM 33 DEB", "OBJECT_ID": "1997-051Q", "EPOCH": "2025-12-12T03:30:11.219616", "MEAN_MOTION": 14.55608327, "ECCENTRICITY": 0.000515, "INCLINATION": 86.3787, "RA_OF_ASC_NODE": 35.4615, "ARG_OF_PERICENTER": 251.76, "MEAN_ANOMALY": 108.3047, "EPHEMERIS_TYPE": 0, "CLASSIFICATION_TYPE": "U", "NORAD_CAT_ID": 33777, "ELEMENT_SET_NO": 999, "REV_AT_EPOCH": 88525, "BSTAR": 0.0013938, "MEAN_MOTION_DOT": 6.101e-05, "MEAN_MOTION_DDOT": 0}, "tle": {"line1": "1 33777U 97051Q   25346.14596319  .00006101  00000+0  13938-2 0  9990", "line2": "2 33777  86.3787  35.4615 0005150 251.7600 108.3047 14.55608327885256"}}, "geometry": {"type": "Point", "coordinates": [28.63000359304159, -61.567428374570625]}}, {"type": "Feature", "properties": {"norad_id": 33850, "name": "IRIDIUM 33 DEB", "group": "iridium-33-debris", "lat": -81.32092614637341, "lon": 5.5436120841772984, "alt_km": 762.6516258898582, "timestamp": "2025-12-12T09:49:09.116711+00:00", "meta": {"OBJECT_NAME": "IRIDIUM 33 DEB", "OBJECT_ID": "1997-051T", "EPOCH": "2025-12-12T03:47:17.414016", "MEAN_MOTION": 14.4214467, "ECCENTRICITY": 0.001217, "INCLINATION": 86.3418, "RA_OF_ASC_NODE": 30.43, "ARG_OF_PERICENTER": 162.7962, "MEAN_ANOMALY": 251.1586, "EPHEMERIS_TYPE": 0, "CLASSIFICATION_TYPE": "U", "NORAD_CAT_ID": 33850, "ELEMENT_SET_NO": 999, "REV_AT_EPOCH": 88144, "BSTAR": 0.00046244, "MEAN_MOTION_DOT": 1.541e-05, "MEAN_MOTION_DDOT": 0}, "tle": {"line1": "1 33850U 97051T   25346.15784044  .00001541  00000+0  46244-3 0  9997", "line2": "2 33850  86.3418  30.4300 0012170 162.7962 251.1586 14.42144670881441"}}, "geometry": {"type": "Point", "coordinates": [5.5436120841772984, -81.32092614637341]}}, {"type": "Feature", "properties": {"norad_id": 33853, "name": "IRIDIUM 33 DEB", "group": "iridium-33-debris", "lat": -5.9669452340196285, "lon": -10.462533469434781, "alt_km": 967.3678665099351, "timestamp": "2025-12-12T09:49:09.116723+00:00", "meta": {"OBJECT_NAME": "IRIDIUM 33 DEB", "OBJECT_ID": "1997-051W", "EPOCH": "2025-12-11T23:41:06.381888", "MEAN_MOTION": 13.99054711, "ECCENTRICITY": 0.020703, "INCLINATION": 86.0002, "RA_OF_ASC_NODE": 350.1415, "ARG_OF_PERICENTER": 238.1458, "MEAN_ANOMALY": 148.4368, "EPHEMERIS_TYPE": 0, "CLASSIFICATION_TYPE": "U", "NORAD_CAT_ID": 33853, "ELEMENT_SET_NO": 999, "REV_AT_EPOCH": 85335, "BSTAR": 0.0027296, "MEAN_MOTION_DOT": 4.759e-05, "MEAN_MOTION_DDOT": 0}, "tle": {"line1": "1 33853U 97051W   25345.98687942  .00004759  00000+0  27296-2 0  9998", "line2": "2 33853  86.0002 350.1415 0207030 238.1458 148.4368 13.99054711853350"}}, "geometry": {"type": "Point", "coordinates": [-10.462533469434781, -5.9669452340196285]}}, {"type": "Feature", "properties": {"norad_id": 33860, "name": "IRIDIUM 33 DEB", "group": "iridium-33-debris", "lat": -1.7639340139368638, "lon": -152.50396093425618, "alt_km": 678.146230457467, "timestamp": "2025-12-12T09:49:09.116735+00:00", "meta": {"OBJECT_NAME": "IRIDIUM 33 DEB", "OBJECT_ID": "1997-051AD", "EPOCH": "2025-12-12T02:34:47.224128", "MEAN_MOTION": 14.67356525, "ECCENTRICITY": 0.0007557, "INCLINATION": 86.3837, "RA_OF_ASC_NODE": 27.5179, "ARG_OF_PERICENTER": 359.9518, "MEAN_ANOMALY": 29.3124, "EPHEMERIS_TYPE": 0, "CLASSIFICATION_TYPE": "U", "NORAD_CAT_ID": 33860, "ELEMENT_SET_NO": 999, "REV_AT_EPOCH": 88713, "BSTAR": 0.0018446, "MEAN_MOTION_DOT": 0.00010448, "MEAN_MOTION_DDOT": 0}, "tle": {"line1": "1 33860U 97051AD  25346.10749102  .00010448  00000+0  18446-2 0  9997", "line2": "2 33860  86.3837  27.5179 0007557 359.9518  29.3124 14.67356525887134"}}, "geometry": {"type": "Point", "coordinates": [-152.50396093425618, -1.7639340139368638]}}, {"type": "Feature", "properties": {"norad_id": 33862, "name": "IRIDIUM 33 DEB", "group": "iridium-33-debris", "lat": -34.81228061082962, "lon": -139.8216891997337, "alt_km": 699.7202772901937, "timestamp": "2025-12-12T09:49:09.116762+00:00", "meta": {"OBJECT_NAME": "IRIDIUM 33 DEB", "OBJECT_ID": "1997-051AF", "EPOCH": "2025-12-12T04:11:14.355744", "MEAN_MOTION": 14.69464382, "ECCENTRICITY": 0.005352, "INCLINATION": 86.4092, "RA_OF_ASC_NODE": 37.7792, "ARG_OF_PERICENTER": 71.1208, "MEAN_ANOMALY": 342.7383, "EPHEMERIS_TYPE": 0, "CLASSIFICATION_TYPE": "U", "NORAD_CAT_ID": 33862, "ELEMENT_SET_NO": 999, "REV_AT_EPOCH": 88815, "BSTAR": 0.00218, "MEAN_MOTION_DOT": 0.00013234, "MEAN_MOTION_DDOT": 0}, "tle": {"line1": "1 33862U 97051AF  25346.17447171  .00013234  00000+0  21800-2 0  9991", "line2": "2 33862  86.4092  37.7792 0053520  71.1208 342.7383 14.69464382888159"}}, "geometry": {"type": "Point", "coordinates": [-139.8216891997337, -34.81228061082962]}}, {"type": "Feature", "properties": {"norad_id": 33866, "name": "IRIDIUM 33 DEB", "group": "iridium-33-debris", "lat": -27.595889140326737, "lon": 91.2368996021695, "alt_km": 894.3965282785493, "timestamp": "2025-12-12T09:49:09.116775+00:00", "meta": {"OBJECT_NAME": "IRIDIUM 33 DEB", "OBJECT_ID": "1997-051AK", "EPOCH": "2025-12-12T02:05:43.156320", "MEAN_MOTION": 14.2527188, "ECCENTRICITY": 0.011444, "INCLINATION": 86.2997, "RA_OF_ASC_NODE": 93.3115, "ARG_OF_PERICENTER": 163.4649, "MEAN_ANOMALY": 318.4965, "EPHEMERIS_TYPE": 0, "CLASSIFICATION_TYPE": "U", "NORAD_CAT_ID": 33866, "ELEMENT_SET_NO": 999, "REV_AT_EPOCH": 86801, "BSTAR": 0.0010928, "MEAN_MOTION_DOT": 2.771e-05, "MEAN_MOTION_DDOT": 0}, "tle": {"line1": "1 33866U 97051AK  25346.08730505  .00002771  00000+0  10928-2 0  9994", "line2": "2 33866  86.2997  93.3115 0114440 163.4649 318.4965 14.25271880868015"}}, "geometry": {"type": "Point", "coordinates": [91.2368996021695, -27.595889140326737]}}]}